CCSDS_OMM_VERS = 2.0
CREATION_DATE  = 
ORIGINATOR     = 

OBJECT_NAME    = STARLINK-35440
OBJECT_ID      = 2025-253AC
CENTER_NAME    = EARTH
REF_FRAME      = TEME
TIME_SYSTEM    = UTC
MEAN_ELEMENT_THEORY = SGP/SGP4

EPOCH          = 2025-11-21T16:00:05.000256
MEAN_MOTION    = 15.74309627
ECCENTRICITY   = .0001369
INCLINATION    = 42.9991
RA_OF_ASC_NODE = 108.4405
ARG_OF_PERICENTER = 286.5558
MEAN_ANOMALY   = 162.9513

EPHEMERIS_TYPE = 0
CLASSIFICATION_TYPE = U
NORAD_CAT_ID   = 66345
ELEMENT_SET_NO = 999
REV_AT_EPOCH   = 354
BSTAR          = -.14547E-1
MEAN_MOTION_DOT = -.1884215E-1
MEAN_MOTION_DDOT = 0

CCSDS_OMM_VERS = 2.0
CREATION_DATE  = 
ORIGINATOR     = 

OBJECT_NAME    = STARLINK-35482
OBJECT_ID      = 2025-253AD
CENTER_NAME    = EARTH
REF_FRAME      = TEME
TIME_SYSTEM    = UTC
MEAN_ELEMENT_THEORY = SGP/SGP4

EPOCH          = 2025-11-21T16:00:05.000256
MEAN_MOTION    = 15.74308516
ECCENTRICITY   = .000154
INCLINATION    = 42.9988
RA_OF_ASC_NODE = 108.4367
ARG_OF_PERICENTER = 289.2541
MEAN_ANOMALY   = 162.1689

EPHEMERIS_TYPE = 0
CLASSIFICATION_TYPE = U
NORAD_CAT_ID   = 66346
ELEMENT_SET_NO = 999
REV_AT_EPOCH   = 363
BSTAR          = -.14527E-1
MEAN_MOTION_DOT = -.1882023E-1
MEAN_MOTION_DDOT = 0

CCSDS_OMM_VERS = 2.0
CREATION_DATE  = 
ORIGINATOR     = 

OBJECT_NAME    = STARLINK-35438
OBJECT_ID      = 2025-253AE
CENTER_NAME    = EARTH
REF_FRAME      = TEME
TIME_SYSTEM    = UTC
MEAN_ELEMENT_THEORY = SGP/SGP4

EPOCH          = 2025-11-21T16:00:05.000256
MEAN_MOTION    = 15.74316588
ECCENTRICITY   = .0001531
INCLINATION    = 42.9989
RA_OF_ASC_NODE = 108.4268
ARG_OF_PERICENTER = 279.0192
MEAN_ANOMALY   = 176.2339

EPHEMERIS_TYPE = 0
CLASSIFICATION_TYPE = U
NORAD_CAT_ID   = 66347
ELEMENT_SET_NO = 999
REV_AT_EPOCH   = 354
BSTAR          = -.14602E-1
MEAN_MOTION_DOT = -.1890988E-1
MEAN_MOTION_DDOT = 0

CCSDS_OMM_VERS = 2.0
CREATION_DATE  = 
ORIGINATOR     = 

OBJECT_NAME    = STARLINK-35849
OBJECT_ID      = 2025-254A
CENTER_NAME    = EARTH
REF_FRAME      = TEME
TIME_SYSTEM    = UTC
MEAN_ELEMENT_THEORY = SGP/SGP4

EPOCH          = 2025-11-21T16:00:05.000256
MEAN_MOTION    = 15.74152944
ECCENTRICITY   = .0001295
INCLINATION    = 53.1587
RA_OF_ASC_NODE = 19.5549
ARG_OF_PERICENTER = 70.8869
MEAN_ANOMALY   = 248.7384

EPHEMERIS_TYPE = 0
CLASSIFICATION_TYPE = U
NORAD_CAT_ID   = 66348
ELEMENT_SET_NO = 999
REV_AT_EPOCH   = 353
BSTAR          = .40349E-3
MEAN_MOTION_DOT = .58783E-3
MEAN_MOTION_DDOT = 0

CCSDS_OMM_VERS = 2.0
CREATION_DATE  = 
ORIGINATOR     = 

OBJECT_NAME    = STARLINK-35848
OBJECT_ID      = 2025-254B
CENTER_NAME    = EARTH
REF_FRAME      = TEME
TIME_SYSTEM    = UTC
MEAN_ELEMENT_THEORY = SGP/SGP4

EPOCH          = 2025-11-21T16:00:05.000256
MEAN_MOTION    = 15.74155597
ECCENTRICITY   = .0001
INCLINATION    = 53.1587
RA_OF_ASC_NODE = 19.5506
ARG_OF_PERICENTER = 71.7379
MEAN_ANOMALY   = 249.8016

EPHEMERIS_TYPE = 0
CLASSIFICATION_TYPE = U
NORAD_CAT_ID   = 66349
ELEMENT_SET_NO = 999
REV_AT_EPOCH   = 353
BSTAR          = .39163E-3
MEAN_MOTION_DOT = .57032E-3
MEAN_MOTION_DDOT = 0

CCSDS_OMM_VERS = 2.0
CREATION_DATE  = 
ORIGINATOR     = 

OBJECT_NAME    = STARLINK-35829
OBJECT_ID      = 2025-254C
CENTER_NAME    = EARTH
REF_FRAME      = TEME
TIME_SYSTEM    = UTC
MEAN_ELEMENT_THEORY = SGP/SGP4

EPOCH          = 2025-11-21T16:00:05.000256
MEAN_MOTION    = 15.74165540
ECCENTRICITY   = .0000899
INCLINATION    = 53.1586
RA_OF_ASC_NODE = 19.5464
ARG_OF_PERICENTER = 45.5285
MEAN_ANOMALY   = 277.9087

EPHEMERIS_TYPE = 0
CLASSIFICATION_TYPE = U
NORAD_CAT_ID   = 66350
ELEMENT_SET_NO = 999
REV_AT_EPOCH   = 353
BSTAR          = .54846E-3
MEAN_MOTION_DOT = .8038E-3
MEAN_MOTION_DDOT = 0

CCSDS_OMM_VERS = 2.0
CREATION_DATE  = 
ORIGINATOR     = 

OBJECT_NAME    = STARLINK-35828
OBJECT_ID      = 2025-254D
CENTER_NAME    = EARTH
REF_FRAME      = TEME
TIME_SYSTEM    = UTC
MEAN_ELEMENT_THEORY = SGP/SGP4

EPOCH          = 2025-11-21T16:00:05.000256
MEAN_MOTION    = 15.74143597
ECCENTRICITY   = .0000829
INCLINATION    = 53.1584
RA_OF_ASC_NODE = 19.5421
ARG_OF_PERICENTER = 79.6439
MEAN_ANOMALY   = 245.7387

EPHEMERIS_TYPE = 0
CLASSIFICATION_TYPE = U
NORAD_CAT_ID   = 66351
ELEMENT_SET_NO = 999
REV_AT_EPOCH   = 350
BSTAR          = .46767E-3
MEAN_MOTION_DOT = .68284E-3
MEAN_MOTION_DDOT = 0

CCSDS_OMM_VERS = 2.0
CREATION_DATE  = 
ORIGINATOR     = 

OBJECT_NAME    = STARLINK-35850
OBJECT_ID      = 2025-254E
CENTER_NAME    = EARTH
REF_FRAME      = TEME
TIME_SYSTEM    = UTC
MEAN_ELEMENT_THEORY = SGP/SGP4

EPOCH          = 2025-11-21T16:00:05.000256
MEAN_MOTION    = 15.74183448
ECCENTRICITY   = .0001353
INCLINATION    = 53.1585
RA_OF_ASC_NODE = 19.5379
ARG_OF_PERICENTER = 58.8306
MEAN_ANOMALY   = 268.4316

EPHEMERIS_TYPE = 0
CLASSIFICATION_TYPE = U
NORAD_CAT_ID   = 66352
ELEMENT_SET_NO = 999
REV_AT_EPOCH   = 348
BSTAR          = .32781E-3
MEAN_MOTION_DOT = .47639E-3
MEAN_MOTION_DDOT = 0

CCSDS_OMM_VERS = 2.0
CREATION_DATE  = 
ORIGINATOR     = 

OBJECT_NAME    = STARLINK-35869
OBJECT_ID      = 2025-254F
CENTER_NAME    = EARTH
REF_FRAME      = TEME
TIME_SYSTEM    = UTC
MEAN_ELEMENT_THEORY = SGP/SGP4

EPOCH          = 2025-11-21T16:00:05.000256
MEAN_MOTION    = 15.74129304
ECCENTRICITY   = .0001069
INCLINATION    = 53.1583
RA_OF_ASC_NODE = 19.5344
ARG_OF_PERICENTER = 93.8214
MEAN_ANOMALY   = 235.3228

EPHEMERIS_TYPE = 0
CLASSIFICATION_TYPE = U
NORAD_CAT_ID   = 66353
ELEMENT_SET_NO = 999
REV_AT_EPOCH   = 353
BSTAR          = .13915E-2
MEAN_MOTION_DOT = .207727E-2
MEAN_MOTION_DDOT = 0

CCSDS_OMM_VERS = 2.0
CREATION_DATE  = 
ORIGINATOR     = 

OBJECT_NAME    = STARLINK-35895
OBJECT_ID      = 2025-254G
CENTER_NAME    = EARTH
REF_FRAME      = TEME
TIME_SYSTEM    = UTC
MEAN_ELEMENT_THEORY = SGP/SGP4

EPOCH          = 2025-11-21T16:00:05.000256
MEAN_MOTION    = 15.74171980
ECCENTRICITY   = .0001607
INCLINATION    = 53.1583
RA_OF_ASC_NODE = 19.5294
ARG_OF_PERICENTER = 49.8455
MEAN_ANOMALY   = 281.2199

EPHEMERIS_TYPE = 0
CLASSIFICATION_TYPE = U
NORAD_CAT_ID   = 66354
ELEMENT_SET_NO = 999
REV_AT_EPOCH   = 353
BSTAR          = .71682E-3
MEAN_MOTION_DOT = .105598E-2
MEAN_MOTION_DDOT = 0

CCSDS_OMM_VERS = 2.0
CREATION_DATE  = 
ORIGINATOR     = 

OBJECT_NAME    = STARLINK-35861
OBJECT_ID      = 2025-254H
CENTER_NAME    = EARTH
REF_FRAME      = TEME
TIME_SYSTEM    = UTC
MEAN_ELEMENT_THEORY = SGP/SGP4

EPOCH          = 2025-11-21T16:00:05.000256
MEAN_MOTION    = 15.74210913
ECCENTRICITY   = .0000869
INCLINATION    = 53.1584
RA_OF_ASC_NODE = 19.5262
ARG_OF_PERICENTER = 80.6573
MEAN_ANOMALY   = 252.3740

EPHEMERIS_TYPE = 0
CLASSIFICATION_TYPE = U
NORAD_CAT_ID   = 66355
ELEMENT_SET_NO = 999
REV_AT_EPOCH   = 353
BSTAR          = -.39118E-3
MEAN_MOTION_DOT = -.5758E-3
MEAN_MOTION_DDOT = 0

CCSDS_OMM_VERS = 2.0
CREATION_DATE  = 
ORIGINATOR     = 

OBJECT_NAME    = STARLINK-35851
OBJECT_ID      = 2025-254J
CENTER_NAME    = EARTH
REF_FRAME      = TEME
TIME_SYSTEM    = UTC
MEAN_ELEMENT_THEORY = SGP/SGP4

EPOCH          = 2025-11-21T16:00:05.000256
MEAN_MOTION    = 15.74178625
ECCENTRICITY   = .0001025
INCLINATION    = 53.1586
RA_OF_ASC_NODE = 19.5219
ARG_OF_PERICENTER = 67.0232
MEAN_ANOMALY   = 267.9366

EPHEMERIS_TYPE = 0
CLASSIFICATION_TYPE = U
NORAD_CAT_ID   = 66356
ELEMENT_SET_NO = 999
REV_AT_EPOCH   = 353
BSTAR          = -.57415E-4
MEAN_MOTION_DOT = -.9024E-4
MEAN_MOTION_DDOT = 0

