STARLINK-35440          
1 66345U 25253AC  25325.66672454 -.01884215  00000+0 -14547-1 0  9990
2 66345  42.9991 108.4405 0001369 286.5558 162.9513 15.74309627  3543
STARLINK-35482          
1 66346U 25253AD  25325.66672454 -.01882023  00000+0 -14527-1 0  9994
2 66346  42.9988 108.4367 0001540 289.2541 162.1689 15.74308516  3632
STARLINK-35438          
1 66347U 25253AE  25325.66672454 -.01890988  00000+0 -14602-1 0  9998
2 66347  42.9989 108.4268 0001531 279.0192 176.2339 15.74316588  3549
STARLINK-35849          
1 66348U 25254A   25325.66672454  .00058783  00000+0  40349-3 0  9995
2 66348  53.1587  19.5549 0001295  70.8869 248.7384 15.74152944  3535
STARLINK-35848          
1 66349U 25254B   25325.66672454  .00057032  00000+0  39163-3 0  9994
2 66349  53.1587  19.5506 0001000  71.7379 249.8016 15.74155597  3530
STARLINK-35829          
1 66350U 25254C   25325.66672454  .00080380  00000+0  54846-3 0  9993
2 66350  53.1586  19.5464 0000899  45.5285 277.9087 15.74165540  3533
STARLINK-35828          
1 66351U 25254D   25325.66672454  .00068284  00000+0  46767-3 0  9996
2 66351  53.1584  19.5421 0000829  79.6439 245.7387 15.74143597  3508
STARLINK-35850          
1 66352U 25254E   25325.66672454  .00047639  00000+0  32781-3 0  9999
2 66352  53.1585  19.5379 0001353  58.8306 268.4316 15.74183448  3487
STARLINK-35869          
1 66353U 25254F   25325.66672454  .00207727  00000+0  13915-2 0  9993
2 66353  53.1583  19.5344 0001069  93.8214 235.3228 15.74129304  3531
STARLINK-35895          
1 66354U 25254G   25325.66672454  .00105598  00000+0  71682-3 0  9993
2 66354  53.1583  19.5294 0001607  49.8455 281.2199 15.74171980  3536
STARLINK-35861          
1 66355U 25254H   25325.66672454 -.00057580  00000+0 -39118-3 0  9991
2 66355  53.1584  19.5262 0000869  80.6573 252.3740 15.74210913  3537
STARLINK-35851          
1 66356U 25254J   25325.66672454 -.00009024  00000+0 -57415-4 0  9993
2 66356  53.1586  19.5219 0001025  67.0232 267.9366 15.74178625  3537
